start=new Date('2023-07-04T00:00:00.000Z').valueOf();
sats=[{"DECAY_DATE":null,"OBJECT_NAME":"STARLINK-3323","NORAD_CAT_ID":"50804","MEAN_ELEMENT_THEORY":"SGP4","INCLINATION":"53.2172","EPHEMERIS_TYPE":"0","TLE_LINE2":"2 50804  53.2172 243.9682 0001087  85.0963 275.0153 15.08842147 83666","OBJECT_ID":"2022-001B","CLASSIFICATION_TYPE":"U","RA_OF_ASC_NODE":"243.9682","APOAPSIS":"540.491","BSTAR":"0.00007574100000","SEMIMAJOR_AXIS":"6917.874","ELEMENT_SET_NO":"999","MEAN_MOTION":"15.08842147","MEAN_MOTION_DDOT":"0.0000000000000","MEAN_ANOMALY":"275.0153","EPOCH":"2023-07-02T11:23:37.967136","MEAN_MOTION_DOT":"0.00000918","CENTER_NAME":"EARTH","LAUNCH_DATE":"2022-01-06","PERIAPSIS":"538.987","OBJECT_TYPE":"PAYLOAD","COUNTRY_CODE":"US","FILE":"3947552","TLE_LINE1":"1 50804U 22001B   23183.47474499  .00000918  00000-0  75741-4 0  9993","RCS_SIZE":"LARGE","REV_AT_EPOCH":"8366","REF_FRAME":"TEME","GP_ID":"234670112","ECCENTRICITY":"0.00010870","SITE":"AFETR","PERIOD":"95.437","TIME_SYSTEM":"UTC","ARG_OF_PERICENTER":"85.0963"},{"CENTER_NAME":"EARTH","MEAN_MOTION_DOT":"0.00002199","PERIAPSIS":"539.127","LAUNCH_DATE":"2022-01-06","EPOCH":"2023-07-03T11:09:07.110432","COUNTRY_CODE":"US","OBJECT_TYPE":"PAYLOAD","MEAN_MOTION":"15.08840608","SEMIMAJOR_AXIS":"6917.879","ELEMENT_SET_NO":"999","MEAN_ANOMALY":"272.8803","MEAN_MOTION_DDOT":"0.0000000000000","GP_ID":"234689622","REF_FRAME":"TEME","SITE":"AFETR","ARG_OF_PERICENTER":"87.2291","PERIOD":"95.438","TIME_SYSTEM":"UTC","ECCENTRICITY":"0.00008910","FILE":"3948338","TLE_LINE1":"1 50805U 22001C   23184.46466563  .00002199  00000-0  15621-3 0  9990","RCS_SIZE":"LARGE","REV_AT_EPOCH":"8383","INCLINATION":"53.2162","NORAD_CAT_ID":"50805","MEAN_ELEMENT_THEORY":"SGP4","DECAY_DATE":null,"OBJECT_NAME":"STARLINK-3333","APOAPSIS":"540.360","RA_OF_ASC_NODE":"239.5225","BSTAR":"0.00015621000000","OBJECT_ID":"2022-001C","CLASSIFICATION_TYPE":"U","EPHEMERIS_TYPE":"0","TLE_LINE2":"2 50805  53.2162 239.5225 0000891  87.2291 272.8803 15.08840608 83836"},{"OBJECT_ID":"2022-001D","CLASSIFICATION_TYPE":"U","TLE_LINE2":"2 50806  53.2159 243.9996 0000917  86.5282 273.5815 15.08841512 83687","EPHEMERIS_TYPE":"0","APOAPSIS":"540.375","RA_OF_ASC_NODE":"243.9996","BSTAR":"0.00005735400000","OBJECT_NAME":"STARLINK-3335","DECAY_DATE":null,"INCLINATION":"53.2159","NORAD_CAT_ID":"50806","MEAN_ELEMENT_THEORY":"SGP4","FILE":"3947748","TLE_LINE1":"1 50806U 22001D   23183.46738416  .00000625  00000-0  57354-4 0  9991","RCS_SIZE":"LARGE","REV_AT_EPOCH":"8368","GP_ID":"234674638","REF_FRAME":"TEME","ARG_OF_PERICENTER":"86.5282","PERIOD":"95.437","TIME_SYSTEM":"UTC","SITE":"AFETR","ECCENTRICITY":"0.00009170","MEAN_MOTION":"15.08841512","ELEMENT_SET_NO":"999","SEMIMAJOR_AXIS":"6917.876","MEAN_ANOMALY":"273.5815","MEAN_MOTION_DDOT":"0.0000000000000","PERIAPSIS":"539.106","LAUNCH_DATE":"2022-01-06","CENTER_NAME":"EARTH","MEAN_MOTION_DOT":"0.00000625","EPOCH":"2023-07-02T11:13:01.991424","COUNTRY_CODE":"US","OBJECT_TYPE":"PAYLOAD"},{"EPOCH":"2023-07-03T10:42:37.148256","PERIAPSIS":"539.119","LAUNCH_DATE":"2022-01-06","MEAN_MOTION_DOT":"0.00003102","CENTER_NAME":"EARTH","OBJECT_TYPE":"PAYLOAD","COUNTRY_CODE":"US","SEMIMAJOR_AXIS":"6917.860","ELEMENT_SET_NO":"999","MEAN_MOTION":"15.08846748","MEAN_MOTION_DDOT":"0.0000000000000","MEAN_ANOMALY":"277.6830","REF_FRAME":"TEME","GP_ID":"234689406","ECCENTRICITY":"0.00008750","TIME_SYSTEM":"UTC","PERIOD":"95.437","ARG_OF_PERICENTER":"82.4262","SITE":"AFETR","FILE":"3948346","RCS_SIZE":"LARGE","TLE_LINE1":"1 50807U 22001E   23184.44626329  .00003102  00000-0  21282-3 0  9993","REV_AT_EPOCH":"8383","MEAN_ELEMENT_THEORY":"SGP4","NORAD_CAT_ID":"50807","INCLINATION":"53.2163","OBJECT_NAME":"STARLINK-3353","DECAY_DATE":null,"RA_OF_ASC_NODE":"239.6060","APOAPSIS":"540.330","BSTAR":"0.00021282000000","TLE_LINE2":"2 50807  53.2163 239.6060 0000875  82.4262 277.6830 15.08846748 83838","EPHEMERIS_TYPE":"0","OBJECT_ID":"2022-001E","CLASSIFICATION_TYPE":"U"},{"MEAN_ANOMALY":"272.6221","MEAN_MOTION_DDOT":"0.0000000000000","MEAN_MOTION":"15.08828631","ELEMENT_SET_NO":"999","SEMIMAJOR_AXIS":"6917.915","COUNTRY_CODE":"US","OBJECT_TYPE":"PAYLOAD","PERIAPSIS":"539.091","LAUNCH_DATE":"2022-01-06","CENTER_NAME":"EARTH","MEAN_MOTION_DOT":"-0.00000567","EPOCH":"2023-07-03T12:28:36.566688","RCS_SIZE":"LARGE","TLE_LINE1":"1 50808U 22001F   23184.51986767 -.00000567  00000-0 -17582-4 0  9990","REV_AT_EPOCH":"8382","FILE":"3948355","PERIOD":"95.438","TIME_SYSTEM":"UTC","ARG_OF_PERICENTER":"87.4885","SITE":"AFETR","ECCENTRICITY":"0.00009960","GP_ID":"234689770","REF_FRAME":"TEME","OBJECT_NAME":"STARLINK-3355","DECAY_DATE":null,"INCLINATION":"53.2166","NORAD_CAT_ID":"50808","MEAN_ELEMENT_THEORY":"SGP4","OBJECT_ID":"2022-001F","CLASSIFICATION_TYPE":"U","TLE_LINE2":"2 50808  53.2166 239.2748 0000996  87.4885 272.6221 15.08828631 83820","EPHEMERIS_TYPE":"0","BSTAR":"-0.00001758200000","APOAPSIS":"540.469","RA_OF_ASC_NODE":"239.2748"},{"DECAY_DATE":null,"OBJECT_NAME":"STARLINK-3232","NORAD_CAT_ID":"50809","MEAN_ELEMENT_THEORY":"SGP4","INCLINATION":"53.2163","TLE_LINE2":"2 50809  53.2163 239.2592 0001318  96.2158 263.8984 15.08795770 83853","EPHEMERIS_TYPE":"0","OBJECT_ID":"2022-001G","CLASSIFICATION_TYPE":"U","RA_OF_ASC_NODE":"239.2592","APOAPSIS":"540.792","BSTAR":"-0.00036077000000","SEMIMAJOR_AXIS":"6918.016","ELEMENT_SET_NO":"999","MEAN_MOTION":"15.08795770","MEAN_MOTION_DDOT":"0.0000000000000","MEAN_ANOMALY":"263.8984","EPOCH":"2023-07-03T12:33:57.667968","PERIAPSIS":"538.969","LAUNCH_DATE":"2022-01-06","CENTER_NAME":"EARTH","MEAN_MOTION_DOT":"-0.00006018","OBJECT_TYPE":"PAYLOAD","COUNTRY_CODE":"US","FILE":"3948747","RCS_SIZE":"LARGE","TLE_LINE1":"1 50809U 22001G   23184.52358412 -.00006018  00000-0 -36077-3 0  9998","REV_AT_EPOCH":"8385","REF_FRAME":"TEME","GP_ID":"234697359","ECCENTRICITY":"0.00013180","ARG_OF_PERICENTER":"96.2158","PERIOD":"95.440","TIME_SYSTEM":"UTC","SITE":"AFETR"},{"OBJECT_NAME":"STARLINK-3348","DECAY_DATE":null,"INCLINATION":"53.2166","MEAN_ELEMENT_THEORY":"SGP4","NORAD_CAT_ID":"50810","OBJECT_ID":"2022-001H","CLASSIFICATION_TYPE":"U","TLE_LINE2":"2 50810  53.2166 239.2923 0000935  82.2046 277.9052 15.08840050 83822","EPHEMERIS_TYPE":"0","APOAPSIS":"540.392","RA_OF_ASC_NODE":"239.2923","BSTAR":"0.00012271000000","MEAN_MOTION":"15.08840050","SEMIMAJOR_AXIS":"6917.880","ELEMENT_SET_NO":"999","MEAN_ANOMALY":"277.9052","MEAN_MOTION_DDOT":"0.0000000000000","LAUNCH_DATE":"2022-01-06","PERIAPSIS":"539.098","MEAN_MOTION_DOT":"0.00001666","CENTER_NAME":"EARTH","EPOCH":"2023-07-03T12:23:18.307968","COUNTRY_CODE":"US","OBJECT_TYPE":"PAYLOAD","FILE":"3948389","REV_AT_EPOCH":"8382","TLE_LINE1":"1 50810U 22001H   23184.51618412  .00001666  00000-0  12271-3 0  9990","RCS_SIZE":"LARGE","GP_ID":"234690514","REF_FRAME":"TEME","TIME_SYSTEM":"UTC","PERIOD":"95.438","ARG_OF_PERICENTER":"82.2046","SITE":"AFETR","ECCENTRICITY":"0.00009350"},{"DECAY_DATE":null,"OBJECT_NAME":"STARLINK-3347","MEAN_ELEMENT_THEORY":"SGP4","NORAD_CAT_ID":"50811","INCLINATION":"53.2164","EPHEMERIS_TYPE":"0","TLE_LINE2":"2 50811  53.2164 239.6234 0000838  84.3171 275.7916 15.08847219 83845","OBJECT_ID":"2022-001J","CLASSIFICATION_TYPE":"U","BSTAR":"0.00025570000000","RA_OF_ASC_NODE":"239.6234","APOAPSIS":"540.303","MEAN_MOTION_DDOT":"0.0000000000000","MEAN_ANOMALY":"275.7916","SEMIMAJOR_AXIS":"6917.858","ELEMENT_SET_NO":"999","MEAN_MOTION":"15.08847219","OBJECT_TYPE":"PAYLOAD","COUNTRY_CODE":"US","EPOCH":"2023-07-03T10:37:19.247232","MEAN_MOTION_DOT":"0.00003785","CENTER_NAME":"EARTH","PERIAPSIS":"539.144","LAUNCH_DATE":"2022-01-06","TLE_LINE1":"1 50811U 22001J   23184.44258388  .00003785  00000-0  25570-3 0  9995","RCS_SIZE":"LARGE","REV_AT_EPOCH":"8384","FILE":"3948304","ECCENTRICITY":"0.00008380","SITE":"AFETR","ARG_OF_PERICENTER":"84.3171","PERIOD":"95.437","TIME_SYSTEM":"UTC","REF_FRAME":"TEME","GP_ID":"234688399"},{"OBJECT_NAME":"STARLINK-3338","DECAY_DATE":null,"INCLINATION":"53.2145","MEAN_ELEMENT_THEORY":"SGP4","NORAD_CAT_ID":"50812","OBJECT_ID":"2022-001K","CLASSIFICATION_TYPE":"U","TLE_LINE2":"2 50812  53.2145 239.8445 0000968  68.0703 292.0392 15.08842215 83802","EPHEMERIS_TYPE":"0","BSTAR":"0.00009616900000","APOAPSIS":"540.408","RA_OF_ASC_NODE":"239.8445","MEAN_ANOMALY":"292.0392","MEAN_MOTION_DDOT":"0.0000000000000","MEAN_MOTION":"15.08842215","SEMIMAJOR_AXIS":"6917.874","ELEMENT_SET_NO":"999","COUNTRY_CODE":"US","OBJECT_TYPE":"PAYLOAD","PERIAPSIS":"539.069","LAUNCH_DATE":"2022-01-06","CENTER_NAME":"EARTH","MEAN_MOTION_DOT":"0.00001243","EPOCH":"2023-07-03T10:00:14.981184","TLE_LINE1":"1 50812U 22001K   23184.41684006  .00001243  00000-0  96169-4 0  9993","RCS_SIZE":"LARGE","REV_AT_EPOCH":"8380","FILE":"3948383","PERIOD":"95.437","TIME_SYSTEM":"UTC","ARG_OF_PERICENTER":"68.0703","SITE":"AFETR","ECCENTRICITY":"0.00009680","GP_ID":"234690679","REF_FRAME":"TEME"},{"OBJECT_NAME":"STARLINK-3349","DECAY_DATE":null,"INCLINATION":"53.2159","NORAD_CAT_ID":"50813","MEAN_ELEMENT_THEORY":"SGP4","OBJECT_ID":"2022-001L","CLASSIFICATION_TYPE":"U","TLE_LINE2":"2 50813  53.2159 239.0114 0000896  90.6012 269.5083 15.08849500 83830","EPHEMERIS_TYPE":"0","BSTAR":"0.00016084000000","APOAPSIS":"540.336","RA_OF_ASC_NODE":"239.0114","MEAN_ANOMALY":"269.5083","MEAN_MOTION_DDOT":"0.0000000000000","MEAN_MOTION":"15.08849500","ELEMENT_SET_NO":"999","SEMIMAJOR_AXIS":"6917.851","COUNTRY_CODE":"US","OBJECT_TYPE":"PAYLOAD","LAUNCH_DATE":"2022-01-06","PERIAPSIS":"539.097","CENTER_NAME":"EARTH","MEAN_MOTION_DOT":"0.00002274","EPOCH":"2023-07-03T13:37:28.854048","REV_AT_EPOCH":"8383","TLE_LINE1":"1 50813U 22001L   23184.56769507  .00002274  00000-0  16084-3 0  9992","RCS_SIZE":"LARGE","FILE":"3948778","PERIOD":"95.437","TIME_SYSTEM":"UTC","ARG_OF_PERICENTER":"90.6012","SITE":"AFETR","ECCENTRICITY":"0.00008960","GP_ID":"234697937","REF_FRAME":"TEME"}];
